ALOS (DAICHI)           
1 28931U 06002A   24275.48086523  .00005669  00000+0  10262-2 0  9995
2 28931  98.0475 226.3824 0002252 107.0128 253.1323 14.66711286996921
